IXPE                    
1 49954U 21121A   24178.66668981  .00005668  00000+0  39599-3 0  9992
2 49954   0.2302 323.2034 0009689  62.0490 127.1350 14.98315654  5763
